CCSDS_OMM_VERS = 2.0
CREATION_DATE  = 
ORIGINATOR     = 

OBJECT_NAME    = ALOS-2
OBJECT_ID      = 2014-029A
CENTER_NAME    = EARTH
REF_FRAME      = TEME
TIME_SYSTEM    = UTC
MEAN_ELEMENT_THEORY = SGP/SGP4

EPOCH          = 2026-03-27T05:39:15.522912
MEAN_MOTION    = 14.79440687
ECCENTRICITY   = .0001916
INCLINATION    = 97.9186
RA_OF_ASC_NODE = 184.5772
ARG_OF_PERICENTER = 105.3493
MEAN_ANOMALY   = 254.7930

EPHEMERIS_TYPE = 0
CLASSIFICATION_TYPE = U
NORAD_CAT_ID   = 39766
ELEMENT_SET_NO = 999
REV_AT_EPOCH   = 63946
BSTAR          = .25975E-3
MEAN_MOTION_DOT = .1888E-4
MEAN_MOTION_DDOT = 0

CCSDS_OMM_VERS = 2.0
CREATION_DATE  = 
ORIGINATOR     = 

OBJECT_NAME    = YAOGAN-29
OBJECT_ID      = 2015-069A
CENTER_NAME    = EARTH
REF_FRAME      = TEME
TIME_SYSTEM    = UTC
MEAN_ELEMENT_THEORY = SGP/SGP4

EPOCH          = 2026-03-27T04:51:08.330400
MEAN_MOTION    = 14.83013188
ECCENTRICITY   = .0000656
INCLINATION    = 98.0123
RA_OF_ASC_NODE = 114.6772
ARG_OF_PERICENTER = 7.2573
MEAN_ANOMALY   = 352.8650

EPHEMERIS_TYPE = 0
CLASSIFICATION_TYPE = U
NORAD_CAT_ID   = 41038
ELEMENT_SET_NO = 999
REV_AT_EPOCH   = 55847
BSTAR          = .24331E-4
MEAN_MOTION_DOT = .144E-5
MEAN_MOTION_DDOT = 0

CCSDS_OMM_VERS = 2.0
CREATION_DATE  = 
ORIGINATOR     = 

OBJECT_NAME    = ASTRO-H (HITOMI)
OBJECT_ID      = 2016-012A
CENTER_NAME    = EARTH
REF_FRAME      = TEME
TIME_SYSTEM    = UTC
MEAN_ELEMENT_THEORY = SGP/SGP4

EPOCH          = 2026-03-27T03:36:57.326400
MEAN_MOTION    = 15.10110806
ECCENTRICITY   = .0009601
INCLINATION    = 30.9987
RA_OF_ASC_NODE = 243.8581
ARG_OF_PERICENTER = 147.3455
MEAN_ANOMALY   = 212.7778

EPHEMERIS_TYPE = 0
CLASSIFICATION_TYPE = U
NORAD_CAT_ID   = 41337
ELEMENT_SET_NO = 999
REV_AT_EPOCH   = 55487
BSTAR          = .17285E-3
MEAN_MOTION_DOT = .2984E-4
MEAN_MOTION_DDOT = 0

CCSDS_OMM_VERS = 2.0
CREATION_DATE  = 
ORIGINATOR     = 

OBJECT_NAME    = HXMT (HUIYAN)
OBJECT_ID      = 2017-034A
CENTER_NAME    = EARTH
REF_FRAME      = TEME
TIME_SYSTEM    = UTC
MEAN_ELEMENT_THEORY = SGP/SGP4

EPOCH          = 2026-03-27T05:15:54.553824
MEAN_MOTION    = 15.17680824
ECCENTRICITY   = .0032085
INCLINATION    = 43.0142
RA_OF_ASC_NODE = 279.1991
ARG_OF_PERICENTER = 343.0390
MEAN_ANOMALY   = 16.9384

EPHEMERIS_TYPE = 0
CLASSIFICATION_TYPE = U
NORAD_CAT_ID   = 42758
ELEMENT_SET_NO = 999
REV_AT_EPOCH   = 48520
BSTAR          = .25552E-3
MEAN_MOTION_DOT = .507E-4
MEAN_MOTION_DDOT = 0

CCSDS_OMM_VERS = 2.0
CREATION_DATE  = 
ORIGINATOR     = 

OBJECT_NAME    = SAOCOM 1A
OBJECT_ID      = 2018-076A
CENTER_NAME    = EARTH
REF_FRAME      = TEME
TIME_SYSTEM    = UTC
MEAN_ELEMENT_THEORY = SGP/SGP4

EPOCH          = 2026-03-27T04:16:39.688032
MEAN_MOTION    = 14.82157089
ECCENTRICITY   = .0001483
INCLINATION    = 97.8908
RA_OF_ASC_NODE = 274.1037
ARG_OF_PERICENTER = 83.8550
MEAN_ANOMALY   = 276.2832

EPHEMERIS_TYPE = 0
CLASSIFICATION_TYPE = U
NORAD_CAT_ID   = 43641
ELEMENT_SET_NO = 999
REV_AT_EPOCH   = 40395
BSTAR          = -.97105E-5
MEAN_MOTION_DOT = -.13E-5
MEAN_MOTION_DDOT = 0

CCSDS_OMM_VERS = 2.0
CREATION_DATE  = 
ORIGINATOR     = 

OBJECT_NAME    = H-2A R/B
OBJECT_ID      = 2018-084L
CENTER_NAME    = EARTH
REF_FRAME      = TEME
TIME_SYSTEM    = UTC
MEAN_ELEMENT_THEORY = SGP/SGP4

EPOCH          = 2026-03-27T04:36:11.048256
MEAN_MOTION    = 15.42073321
ECCENTRICITY   = .002392
INCLINATION    = 98.8713
RA_OF_ASC_NODE = 307.3285
ARG_OF_PERICENTER = 324.4256
MEAN_ANOMALY   = 35.5391

EPHEMERIS_TYPE = 0
CLASSIFICATION_TYPE = U
NORAD_CAT_ID   = 43682
ELEMENT_SET_NO = 999
REV_AT_EPOCH   = 40847
BSTAR          = .44706E-3
MEAN_MOTION_DOT = .1921E-3
MEAN_MOTION_DDOT = 0

CCSDS_OMM_VERS = 2.0
CREATION_DATE  = 
ORIGINATOR     = 

OBJECT_NAME    = SAOCOM 1B
OBJECT_ID      = 2020-059A
CENTER_NAME    = EARTH
REF_FRAME      = TEME
TIME_SYSTEM    = UTC
MEAN_ELEMENT_THEORY = SGP/SGP4

EPOCH          = 2026-03-27T03:24:25.360416
MEAN_MOTION    = 14.82154271
ECCENTRICITY   = .000151
INCLINATION    = 97.8908
RA_OF_ASC_NODE = 273.1658
ARG_OF_PERICENTER = 87.4009
MEAN_ANOMALY   = 272.7377

EPHEMERIS_TYPE = 0
CLASSIFICATION_TYPE = U
NORAD_CAT_ID   = 46265
ELEMENT_SET_NO = 999
REV_AT_EPOCH   = 30133
BSTAR          = .8664E-4
MEAN_MOTION_DOT = .638E-5
MEAN_MOTION_DDOT = 0

CCSDS_OMM_VERS = 2.0
CREATION_DATE  = 
ORIGINATOR     = 

OBJECT_NAME    = CSS (TIANHE)
OBJECT_ID      = 2021-035A
CENTER_NAME    = EARTH
REF_FRAME      = TEME
TIME_SYSTEM    = UTC
MEAN_ELEMENT_THEORY = SGP/SGP4

EPOCH          = 2026-03-26T23:43:11.661024
MEAN_MOTION    = 15.61535723
ECCENTRICITY   = .0004228
INCLINATION    = 41.4668
RA_OF_ASC_NODE = 102.8341
ARG_OF_PERICENTER = 32.9818
MEAN_ANOMALY   = 327.1284

EPHEMERIS_TYPE = 0
CLASSIFICATION_TYPE = U
NORAD_CAT_ID   = 48274
ELEMENT_SET_NO = 999
REV_AT_EPOCH   = 28031
BSTAR          = .26344E-3
MEAN_MOTION_DOT = .22978E-3
MEAN_MOTION_DDOT = 0

CCSDS_OMM_VERS = 2.0
CREATION_DATE  = 
ORIGINATOR     = 

OBJECT_NAME    = COSMOS 2550
OBJECT_ID      = 2021-056A
CENTER_NAME    = EARTH
REF_FRAME      = TEME
TIME_SYSTEM    = UTC
MEAN_ELEMENT_THEORY = SGP/SGP4

EPOCH          = 2026-03-27T01:23:45.481920
MEAN_MOTION    = 15.33832948
ECCENTRICITY   = .0008316
INCLINATION    = 67.1451
RA_OF_ASC_NODE = 348.3445
ARG_OF_PERICENTER = 269.0746
MEAN_ANOMALY   = 90.9456

EPHEMERIS_TYPE = 0
CLASSIFICATION_TYPE = U
NORAD_CAT_ID   = 48865
ELEMENT_SET_NO = 999
REV_AT_EPOCH   = 26612
BSTAR          = .14433E-6
MEAN_MOTION_DOT = -.187E-5
MEAN_MOTION_DDOT = 0

CCSDS_OMM_VERS = 2.0
CREATION_DATE  = 
ORIGINATOR     = 

OBJECT_NAME    = CZ-2C R/B
OBJECT_ID      = 2022-058K
CENTER_NAME    = EARTH
REF_FRAME      = TEME
TIME_SYSTEM    = UTC
MEAN_ELEMENT_THEORY = SGP/SGP4

EPOCH          = 2026-03-26T19:12:08.864640
MEAN_MOTION    = 15.55455273
ECCENTRICITY   = .0041479
INCLINATION    = 50.1867
RA_OF_ASC_NODE = 230.1901
ARG_OF_PERICENTER = 274.0304
MEAN_ANOMALY   = 85.5926

EPHEMERIS_TYPE = 0
CLASSIFICATION_TYPE = U
NORAD_CAT_ID   = 52794
ELEMENT_SET_NO = 999
REV_AT_EPOCH   = 21279
BSTAR          = .50425415E-3
MEAN_MOTION_DOT = .3612E-3
MEAN_MOTION_DDOT = 0

CCSDS_OMM_VERS = 2.0
CREATION_DATE  = 
ORIGINATOR     = 

OBJECT_NAME    = CZ-2C R/B
OBJECT_ID      = 2022-132E
CENTER_NAME    = EARTH
REF_FRAME      = TEME
TIME_SYSTEM    = UTC
MEAN_ELEMENT_THEORY = SGP/SGP4

EPOCH          = 2026-03-26T23:33:49.732704
MEAN_MOTION    = 15.63463210
ECCENTRICITY   = .0018126
INCLINATION    = 97.2959
RA_OF_ASC_NODE = 89.8447
ARG_OF_PERICENTER = 35.1570
MEAN_ANOMALY   = 325.0881

EPHEMERIS_TYPE = 0
CLASSIFICATION_TYPE = U
NORAD_CAT_ID   = 54039
ELEMENT_SET_NO = 999
REV_AT_EPOCH   = 19307
BSTAR          = .56005E-3
MEAN_MOTION_DOT = .52241E-3
MEAN_MOTION_DDOT = 0

CCSDS_OMM_VERS = 2.0
CREATION_DATE  = 
ORIGINATOR     = 

OBJECT_NAME    = GSLV R/B
OBJECT_ID      = 2022-138AN
CENTER_NAME    = EARTH
REF_FRAME      = TEME
TIME_SYSTEM    = UTC
MEAN_ELEMENT_THEORY = SGP/SGP4

EPOCH          = 2026-03-27T04:03:59.925312
MEAN_MOTION    = 14.96884576
ECCENTRICITY   = .0024076
INCLINATION    = 87.3863
RA_OF_ASC_NODE = 160.5111
ARG_OF_PERICENTER = 89.1212
MEAN_ANOMALY   = 271.2778

EPHEMERIS_TYPE = 0
CLASSIFICATION_TYPE = U
NORAD_CAT_ID   = 54149
ELEMENT_SET_NO = 999
REV_AT_EPOCH   = 18654
BSTAR          = .18986E-3
MEAN_MOTION_DOT = .2219E-4
MEAN_MOTION_DDOT = 0

