ALOS-2                  
1 39766U 14029A   26086.23559633  .00001888  00000+0  25975-3 0  9990
2 39766  97.9186 184.5772 0001916 105.3493 254.7930 14.79440687639467
YAOGAN-29               
1 41038U 15069A   26086.20217975  .00000144  00000+0  24331-4 0  9997
2 41038  98.0123 114.6772 0000656   7.2573 352.8650 14.83013188558475
ASTRO-H (HITOMI)        
1 41337U 16012A   26086.15066350  .00002984  00000+0  17285-3 0  9994
2 41337  30.9987 243.8581 0009601 147.3455 212.7778 15.10110806554878
HXMT (HUIYAN)           
1 42758U 17034A   26086.21938141  .00005070  00000+0  25552-3 0  9995
2 42758  43.0142 279.1991 0032085 343.0390  16.9384 15.17680824485202
SAOCOM 1A               
1 43641U 18076A   26086.17823713 -.00000130  00000+0 -97105-5 0  9996
2 43641  97.8908 274.1037 0001483  83.8550 276.2832 14.82157089403956
H-2A R/B                
1 43682U 18084L   26086.19179454  .00019210  00000+0  44706-3 0  9992
2 43682  98.8713 307.3285 0023920 324.4256  35.5391 15.42073321408478
SAOCOM 1B               
1 46265U 20059A   26086.14196019  .00000638  00000+0  86640-4 0  9996
2 46265  97.8908 273.1658 0001510  87.4009 272.7377 14.82154271301333
CSS (TIANHE)            
1 48274U 21035A   26085.98832941  .00022978  00000+0  26344-3 0  9990
2 48274  41.4668 102.8341 0004228  32.9818 327.1284 15.61535723280311
COSMOS 2550             
1 48865U 21056A   26086.05816530 -.00000187  00000+0  14433-6 0  9992
2 48865  67.1451 348.3445 0008316 269.0746  90.9456 15.33832948266126
CZ-2C R/B               
1 52794U 22058K   26085.80010260  .00036120  00000+0  50425-3 0  9992
2 52794  50.1867 230.1901 0041479 274.0304  85.5926 15.55455273212795
CZ-2C R/B               
1 54039U 22132E   26085.98182561  .00052241  00000+0  56005-3 0  9994
2 54039  97.2959  89.8447 0018126  35.1570 325.0881 15.63463210193071
GSLV R/B                
1 54149U 22138AN  26086.16944358  .00002219  00000+0  18986-3 0  9999
2 54149  87.3863 160.5111 0024076  89.1212 271.2778 14.96884576186543
